{
  "type": "FeatureCollection",
  "features": [
    {
      "type": "Feature",
      "properties": {
        "norad_id": 33860,
        "name": "IRIDIUM 33 DEB",
        "group": "iridium-33-debris",
        "lat": 39.1558401607541,
        "lon": -157.5560705213499,
        "alt_km": 671.0154495373745,
        "timestamp": "2025-12-16T21:38:57.559651+00:00",
        "meta_object_name": "IRIDIUM 33 DEB",
        "meta_object_id": "1997-051AD",
        "meta_epoch": "2025-12-16T03:18:22.249728",
        "meta_mean_motion": 14.67412584,
        "meta_eccentricity": 0.00070007,
        "meta_inclination": 86.3834,
        "meta_ra_of_asc_node": 25.7343,
        "meta_arg_of_pericenter": 345.5584,
        "meta_mean_anomaly": 80.1519,
        "meta_ephemeris_type": 0,
        "meta_classification_type": "U",
        "meta_norad_cat_id": 33860,
        "meta_element_set_no": 999,
        "meta_rev_at_epoch": 88772,
        "meta_bstar": 0.00078071983,
        "meta_mean_motion_dot": 4.437e-05,
        "meta_mean_motion_ddot": 0,
        "tle_line1": "1 33860U 97051AD  25350.13775752  .00004437  00000+0  78072-3 0  9998",
        "tle_line2": "2 33860  86.3834  25.7343 0007000 345.5584  80.1519 14.67412584887727"
      },
      "geometry": {
        "type": "Point",
        "coordinates": [
          -157.5560705213499,
          39.1558401607541
        ]
      }
    },
    {
      "type": "Feature",
      "properties": {
        "norad_id": 33862,
        "name": "IRIDIUM 33 DEB",
        "group": "iridium-33-debris",
        "lat": -27.926551911654993,
        "lon": -142.39728395249557,
        "alt_km": 701.6629754280793,
        "timestamp": "2025-12-16T21:38:57.559662+00:00",
        "meta_object_name": "IRIDIUM 33 DEB",
        "meta_object_id": "1997-051AF",
        "meta_epoch": "2025-12-16T02:52:06.661920",
        "meta_mean_motion": 14.69533273,
        "meta_eccentricity": 0.00531495,
        "meta_inclination": 86.4094,
        "meta_ra_of_asc_node": 36.0403,
        "meta_arg_of_pericenter": 57.8941,
        "meta_mean_anomaly": 332.5382,
        "meta_ephemeris_type": 0,
        "meta_classification_type": "U",
        "meta_norad_cat_id": 33862,
        "meta_element_set_no": 999,
        "meta_rev_at_epoch": 88873,
        "meta_bstar": 0.00087900386,
        "meta_mean_motion_dot": 5.353e-05,
        "meta_mean_motion_ddot": 0,
        "tle_line1": "1 33862U 97051AF  25350.11952155  .00005353  00000+0  87900-3 0  9990",
        "tle_line2": "2 33862  86.4094  36.0403 0053149  57.8941 332.5382 14.69533273888730"
      },
      "geometry": {
        "type": "Point",
        "coordinates": [
          -142.39728395249557,
          -27.926551911654993
        ]
      }
    },
    {
      "type": "Feature",
      "properties": {
        "norad_id": 33866,
        "name": "IRIDIUM 33 DEB",
        "group": "iridium-33-debris",
        "lat": -29.053748039052508,
        "lon": 89.21448071585553,
        "alt_km": 895.8507125174701,
        "timestamp": "2025-12-16T21:38:57.559674+00:00",
        "meta_object_name": "IRIDIUM 33 DEB",
        "meta_object_id": "1997-051AK",
        "meta_epoch": "2025-12-16T08:37:26.387616",
        "meta_mean_motion": 14.25287364,
        "meta_eccentricity": 0.01147625,
        "meta_inclination": 86.3,
        "meta_ra_of_asc_node": 91.5042,
        "meta_arg_of_pericenter": 149.9058,
        "meta_mean_anomaly": 278.1658,
        "meta_ephemeris_type": 0,
        "meta_classification_type": "U",
        "meta_norad_cat_id": 33866,
        "meta_element_set_no": 999,
        "meta_rev_at_epoch": 86862,
        "meta_bstar": 0.00048044812,
        "meta_mean_motion_dot": 1.231e-05,
        "meta_mean_motion_ddot": 0,
        "tle_line1": "1 33866U 97051AK  25350.35933319  .00001231  00000+0  48045-3 0  9999",
        "tle_line2": "2 33866  86.3000  91.5042 0114762 149.9058 278.1658 14.25287364868622"
      },
      "geometry": {
        "type": "Point",
        "coordinates": [
          89.21448071585553,
          -29.053748039052508
        ]
      }
    },
    {
      "type": "Feature",
      "properties": {
        "norad_id": 33867,
        "name": "IRIDIUM 33 DEB",
        "group": "iridium-33-debris",
        "lat": 37.5217626697258,
        "lon": -9.270531624844219,
        "alt_km": 334.5288503622696,
        "timestamp": "2025-12-16T21:38:57.559685+00:00",
        "meta_object_name": "IRIDIUM 33 DEB",
        "meta_object_id": "1997-051AL",
        "meta_epoch": "2025-12-16T06:14:27.304800",
        "meta_mean_motion": 15.74337864,
        "meta_eccentricity": 0.00137765,
        "meta_inclination": 86.3648,
        "meta_ra_of_asc_node": 348.2677,
        "meta_arg_of_pericenter": 90.5977,
        "meta_mean_anomaly": 269.6874,
        "meta_ephemeris_type": 0,
        "meta_classification_type": "U",
        "meta_norad_cat_id": 33867,
        "meta_element_set_no": 999,
        "meta_rev_at_epoch": 89566,
        "meta_bstar": 0.0065950969,
        "meta_mean_motion_dot": 0.01055705,
        "meta_mean_motion_ddot": 0,
        "tle_line1": "1 33867U 97051AL  25350.26003825  .01055705  00000+0  65951-2 0  9990",
        "tle_line2": "2 33867  86.3648 348.2677 0013776  90.5977 269.6874 15.74337864895666"
      },
      "geometry": {
        "type": "Point",
        "coordinates": [
          -9.270531624844219,
          37.5217626697258
        ]
      }
    },
    {
      "type": "Feature",
      "properties": {
        "norad_id": 33870,
        "name": "IRIDIUM 33 DEB",
        "group": "iridium-33-debris",
        "lat": 17.453923190494592,
        "lon": 57.61880513692737,
        "alt_km": 752.7467199377179,
        "timestamp": "2025-12-16T21:38:57.559696+00:00",
        "meta_object_name": "IRIDIUM 33 DEB",
        "meta_object_id": "1997-051AP",
        "meta_epoch": "2025-12-16T05:12:29.078208",
        "meta_mean_motion": 14.45870767,
        "meta_eccentricity": 0.00218863,
        "meta_inclination": 86.3748,
        "meta_ra_of_asc_node": 56.7702,
        "meta_arg_of_pericenter": 166.7882,
        "meta_mean_anomaly": 247.4368,
        "meta_ephemeris_type": 0,
        "meta_classification_type": "U",
        "meta_norad_cat_id": 33870,
        "meta_element_set_no": 999,
        "meta_rev_at_epoch": 88187,
        "meta_bstar": 0.00056447211,
        "meta_mean_motion_dot": 2.03e-05,
        "meta_mean_motion_ddot": 0,
        "tle_line1": "1 33870U 97051AP  25350.21700322  .00002030  00000+0  56447-3 0  9998",
        "tle_line2": "2 33870  86.3748  56.7702 0021886 166.7882 247.4368 14.45870767881874"
      },
      "geometry": {
        "type": "Point",
        "coordinates": [
          57.61880513692737,
          17.453923190494592
        ]
      }
    },
    {
      "type": "Feature",
      "properties": {
        "norad_id": 33881,
        "name": "IRIDIUM 33 DEB",
        "group": "iridium-33-debris",
        "lat": 46.05986448614227,
        "lon": 108.69376589250416,
        "alt_km": 718.2324164756146,
        "timestamp": "2025-12-16T21:38:57.559707+00:00",
        "meta_object_name": "IRIDIUM 33 DEB",
        "meta_object_id": "1997-051BA",
        "meta_epoch": "2025-12-16T08:29:45.648384",
        "meta_mean_motion": 14.5664163,
        "meta_eccentricity": 0.00614536,
        "meta_inclination": 86.3859,
        "meta_ra_of_asc_node": 105.1715,
        "meta_arg_of_pericenter": 163.0426,
        "meta_mean_anomaly": 251.7518,
        "meta_ephemeris_type": 0,
        "meta_classification_type": "U",
        "meta_norad_cat_id": 33881,
        "meta_element_set_no": 999,
        "meta_rev_at_epoch": 87553,
        "meta_bstar": 0.0014018898,
        "meta_mean_motion_dot": 6.438e-05,
        "meta_mean_motion_ddot": 0,
        "tle_line1": "1 33881U 97051BA  25350.35400056  .00006438  00000+0  14019-2 0  9990",
        "tle_line2": "2 33881  86.3859 105.1715 0061453 163.0426 251.7518 14.56641630875538"
      },
      "geometry": {
        "type": "Point",
        "coordinates": [
          108.69376589250416,
          46.05986448614227
        ]
      }
    },
    {
      "type": "Feature",
      "properties": {
        "norad_id": 33884,
        "name": "IRIDIUM 33 DEB",
        "group": "iridium-33-debris",
        "lat": -54.293489893677325,
        "lon": 2.872213657481799,
        "alt_km": 637.7986939683406,
        "timestamp": "2025-12-16T21:38:57.559718+00:00",
        "meta_object_name": "IRIDIUM 33 DEB",
        "meta_object_id": "1997-051BD",
        "meta_epoch": "2025-12-16T01:01:12.677376",
        "meta_mean_motion": 14.77497701,
        "meta_eccentricity": 0.00092992,
        "meta_inclination": 86.3697,
        "meta_ra_of_asc_node": 8.3278,
        "meta_arg_of_pericenter": 311.0576,
        "meta_mean_anomaly": 105.6317,
        "meta_ephemeris_type": 0,
        "meta_classification_type": "U",
        "meta_norad_cat_id": 33884,
        "meta_element_set_no": 999,
        "meta_rev_at_epoch": 88896,
        "meta_bstar": 0.00098272184,
        "meta_mean_motion_dot": 7.035e-05,
        "meta_mean_motion_ddot": 0,
        "tle_line1": "1 33884U 97051BD  25350.04250784  .00007035  00000+0  98272-3 0  9998",
        "tle_line2": "2 33884  86.3697   8.3278 0009299 311.0576 105.6317 14.77497701888966"
      },
      "geometry": {
        "type": "Point",
        "coordinates": [
          2.872213657481799,
          -54.293489893677325
        ]
      }
    }
  ]
}